{
  "67879": {
    "noradId": "67879",
    "tle": [
      "1 67879C 26035A   26110.40326389 -.00039318  00000+0 -12204-2 0  1109",
      "2 67879  97.2852  44.3533 0002408  88.7544  19.7689 15.33460550    17"
    ]
  },
  "67880": {
    "noradId": "67880",
    "tle": [
      "1 67880C 26035B   26110.45951389 -.00040075  00000+0 -12437-2 0  1100",
      "2 67880  97.2852  44.4155 0002232  95.6888 338.1521 15.33465698    14"
    ]
  },
  "67881": {
    "noradId": "67881",
    "tle": [
      "1 67881C 26035C   26110.43104167 -.00039397  00000+0 -12228-2 0  1106",
      "2 67881  97.2854  44.4904 0002505  96.9991  59.7687 15.33461091    13"
    ]
  },
  "67882": {
    "noradId": "67882",
    "tle": [
      "1 67882C 26035D   26110.44909722 -.00038123  00000+0 -11832-2 0  1104",
      "2 67882  97.2855  44.4636 0002299 107.0404  44.3362 15.33463747    10"
    ]
  },
  "67883": {
    "noradId": "67883",
    "tle": [
      "1 67883C 26035E   26110.46298611 -.00035756  00000+0 -11094-2 0  1104",
      "2 67883  97.2854  44.4707 0001858  92.7060 120.1873 15.33470928    16"
    ]
  },
  "67884": {
    "noradId": "67884",
    "tle": [
      "1 67884C 26035F   26110.46645833 -.00039070  00000+0 -12146-2 0  1109",
      "2 67884  97.2853  44.4288 0001672  83.7891  43.3789 15.33412904    18"
    ]
  },
  "67885": {
    "noradId": "67885",
    "tle": [
      "1 67885C 26035G   26110.43312500 -.00033658  00000+0 -10174-2 0  1104",
      "2 67885  97.2850  44.4050 0002306 104.4043 221.1353 15.34299399    13"
    ]
  },
  "67886": {
    "noradId": "67886",
    "tle": [
      "1 67886C 26035H   26110.47062500 -.00038048  00000+0 -11806-2 0  1102",
      "2 67886  97.2852  44.4394 0001698  88.6948  76.4334 15.33471338    11"
    ]
  },
  "67887": {
    "noradId": "67887",
    "tle": [
      "1 67887C 26035J   26110.42826389 -.00036713  00000+0 -11395-2 0  1101",
      "2 67887  97.2853  44.4677 0002498  98.7013 357.6986 15.33458687    10"
    ]
  },
  "67888": {
    "noradId": "67888",
    "tle": [
      "1 67888C 26035K   26110.44284722 -.00038085  00000+0 -11820-2 0  1100",
      "2 67888  97.2853  44.4756 0002183 101.6965  60.2098 15.33464703    17"
    ]
  },
  "67889": {
    "noradId": "67889",
    "tle": [
      "1 67889C 26035L   26110.41020833 -.00022653  00000+0 -70323-3 0  1107",
      "2 67889  97.2854  44.4311 0002441 112.6194 199.2062 15.33447501    10"
    ]
  },
  "67890": {
    "noradId": "67890",
    "tle": [
      "1 67890C 26035M   26110.45812500 -.00041661  00000+0 -12929-2 0  1100",
      "2 67890  97.2852  44.4404 0001995  91.4272  34.7591 15.33468592    10"
    ]
  },
  "67891": {
    "noradId": "67891",
    "tle": [
      "1 67891C 26035N   26110.41854167 -.00045967  00000+0 -14261-2 0  1106",
      "2 67891  97.2863  43.4551 0002021 108.2378  77.7148 15.33478898    15"
    ]
  },
  "67892": {
    "noradId": "67892",
    "tle": [
      "1 67892C 26035P   26110.42826389 -.00039060  00000+0 -12120-2 0  1102",
      "2 67892  97.2852  44.5277 0002107 105.7988 125.6404 15.33472245    13"
    ]
  },
  "67893": {
    "noradId": "67893",
    "tle": [
      "1 67893C 26035Q   26110.40256944 -.02140100  00000+0 -52446-1 0  1109",
      "2 67893  97.2856  44.4356 0001580 108.3527 189.5758 15.41874823    15"
    ]
  },
  "67894": {
    "noradId": "67894",
    "tle": [
      "1 67894C 26035R   26110.48243056 -.00030255  00000+0 -93907-3 0  1104",
      "2 67894  97.2849  44.4581 0001903  89.8741 155.3947 15.33458083    16"
    ]
  },
  "67895": {
    "noradId": "67895",
    "tle": [
      "1 67895C 26035S   26110.39631944 -.00032844  00000+0 -10190-2 0  1100",
      "2 67895  97.2854  44.3987 0002338 108.0068  82.1948 15.33471686    13"
    ]
  },
  "67896": {
    "noradId": "67896",
    "tle": [
      "1 67896C 26035T   26110.43034722 -.00040712  00000+0 -12635-2 0  1106",
      "2 67896  97.2853  44.4966 0002629  89.9693  77.9679 15.33465317    12"
    ]
  },
  "67897": {
    "noradId": "67897",
    "tle": [
      "1 67897C 26035U   26110.41506944 -.00034857  00000+0 -10820-2 0  1102",
      "2 67897  97.2853  44.4685 0001994 109.5254 304.1254 15.33457163    11"
    ]
  },
  "67898": {
    "noradId": "67898",
    "tle": [
      "1 67898C 26035V   26110.45673611 -.00032543  00000+0 -10101-2 0  1105",
      "2 67898  97.2853  44.4839 0001711  94.9533 128.5714 15.33459777    19"
    ]
  },
  "67899": {
    "noradId": "67899",
    "tle": [
      "1 67899C 26035W   26110.43451389 -.02170900  00000+0 -60338-1 0  1108",
      "2 67899  97.2851  44.5074 0002103 101.9051 106.0456 15.38022437    18"
    ]
  },
  "67900": {
    "noradId": "67900",
    "tle": [
      "1 67900C 26035X   26110.43243056 -.02167000  00000+0 -59636-1 0  1107",
      "2 67900  97.2850  44.5130 0002088 103.1421 111.3212 15.38328274    17"
    ]
  },
  "67901": {
    "noradId": "67901",
    "tle": [
      "1 67901C 26035Y   26110.46506944 -.02197600  00000+0 -42609-1 0  1100",
      "2 67901  97.2861  44.4635 0001829  97.9738 106.0201 15.48842063    19"
    ]
  },
  "67902": {
    "noradId": "67902",
    "tle": [
      "1 67902C 26035Z   26110.45118056 -.00032894  00000+0 -99436-3 0  1106",
      "2 67902  97.2852  44.5217 0002187 101.4682 190.6865 15.34297031    13"
    ]
  },
  "67903": {
    "noradId": "67903",
    "tle": [
      "1 67903C 26035AA  26110.40743056 -.00040109  00000+0 -12461-2 0  1106",
      "2 67903  97.2853  44.4035 0001712  98.4671 138.0384 15.33433227    18"
    ]
  },
  "67904": {
    "noradId": "67904",
    "tle": [
      "1 67904C 26036A   26110.43312500 -.00025373  00000+0 -89618-3 0  1102",
      "2 67904  43.0037  10.0525 0001664 263.1385 337.8126 15.28413174    10"
    ]
  },
  "67905": {
    "noradId": "67905",
    "tle": [
      "1 67905C 26036B   26110.41090278 -.00024939  00000+0 -90371-3 0  1101",
      "2 67905  43.0043  10.0258 0001557 261.2874 274.5713 15.27575825    14"
    ]
  },
  "67906": {
    "noradId": "67906",
    "tle": [
      "1 67906C 26036C   26110.41993056 -.00028080  00000+0 -10173-2 0  1100",
      "2 67906  43.0044   9.9218 0001488 278.8439 327.9199 15.27583466    14"
    ]
  },
  "67907": {
    "noradId": "67907",
    "tle": [
      "1 67907C 26036D   26110.46159722 -.00012313  00000+0 -44600-3 0  1105",
      "2 67907  43.0042   9.6356 0001457 277.3022 220.0993 15.27581472    11"
    ]
  },
  "67908": {
    "noradId": "67908",
    "tle": [
      "1 67908C 26036E   26110.47618056 -.00010883  00000+0 -39380-3 0  1106",
      "2 67908  43.0041   9.4945 0001650 286.4257 312.5254 15.27615252    10"
    ]
  },
  "67909": {
    "noradId": "67909",
    "tle": [
      "1 67909C 26036F   26110.39423611 -.00023453  00000+0 -84987-3 0  1109",
      "2 67909  43.0042   9.9104 0001352 274.1086 254.8812 15.27575252    10"
    ]
  },
  "67910": {
    "noradId": "67910",
    "tle": [
      "1 67910C 26036G   26110.44562500 -.00016698  00000+0 -60507-3 0  1103",
      "2 67910  43.0033   9.5676 0001451 277.1251 196.0150 15.27572412    16"
    ]
  },
  "67911": {
    "noradId": "67911",
    "tle": [
      "1 67911C 26036H   26110.49006944 -.00000410  00000+0 -14854-4 0  1104",
      "2 67911  43.0013   9.2159 0001579 251.2440 141.9838 15.27569803    14"
    ]
  },
  "67912": {
    "noradId": "67912",
    "tle": [
      "1 67912C 26036J   26110.43937500 -.00017848  00000+0 -64652-3 0  1103",
      "2 67912  43.0012   9.4526 0001477 279.9172 215.4126 15.27584629    10"
    ]
  },
  "67913": {
    "noradId": "67913",
    "tle": [
      "1 67913C 26036K   26110.46854167 -.00013107  00000+0 -47483-3 0  1101",
      "2 67913  43.0012   9.2364 0001440 244.6671  72.3820 15.27577979    13"
    ]
  },
  "67914": {
    "noradId": "67914",
    "tle": [
      "1 67914C 26036L   26110.40534722 -.00021171  00000+0 -76684-3 0  1103",
      "2 67914  43.0017   9.4575 0001492 278.7544 107.0808 15.27587275    11"
    ]
  },
  "67915": {
    "noradId": "67915",
    "tle": [
      "1 67915C 26036M   26110.45118056 -.00022104  00000+0 -80102-3 0  1104",
      "2 67915  43.0014   9.2807 0001429 256.8899 345.8962 15.27572531    17"
    ]
  },
  "67916": {
    "noradId": "67916",
    "tle": [
      "1 67916C 26036N   26110.39076389 -.00023481  00000+0 -82937-3 0  1107",
      "2 67916  43.0020   9.5032 0001218 279.2888  40.7813 15.28412124    19"
    ]
  },
  "67917": {
    "noradId": "67917",
    "tle": [
      "1 67917C 26036P   26110.39006944 -.00021455  00000+0 -77737-3 0  1109",
      "2 67917  43.0029   9.4357 0001576 280.1146  64.0307 15.27577788    17"
    ]
  },
  "67918": {
    "noradId": "67918",
    "tle": [
      "1 67918C 26036Q   26110.40187500 -.00018704  00000+0 -67759-3 0  1106",
      "2 67918  43.0044  10.1324 0001618 282.3937 182.5063 15.27581170    12"
    ]
  },
  "67919": {
    "noradId": "67919",
    "tle": [
      "1 67919C 26036R   26110.48034722 -.00001927  00000+0 -68057-4 0  1104",
      "2 67919  43.0021   8.9850 0001427 276.9784 180.8525 15.28407459    16"
    ]
  },
  "67920": {
    "noradId": "67920",
    "tle": [
      "1 67920C 26036S   26110.40881944 -.00025139  00000+0 -91073-3 0  1108",
      "2 67920  43.0044   9.9938 0001472 277.5424 260.9758 15.27584316    14"
    ]
  },
  "67921": {
    "noradId": "67921",
    "tle": [
      "1 67921C 26036T   26110.45048611 -.00014831  00000+0 -53739-3 0  1104",
      "2 67921  43.0043   9.7188 0001324 269.3424 159.8201 15.27572383    14"
    ]
  },
  "67923": {
    "noradId": "67923",
    "tle": [
      "1 67923C 26036V   26110.47826389 -.00010466  00000+0 -37932-3 0  1101",
      "2 67923  43.0034   9.4638 0001358 250.2435  14.3003 15.27564392    17"
    ]
  },
  "67924": {
    "noradId": "67924",
    "tle": [
      "1 67924C 26036W   26110.48381944 -.00005657  00000+0 -20509-3 0  1104",
      "2 67924  43.0039   9.3594 0001211 274.2914  42.0462 15.27552451    19"
    ]
  }
}